[{"OBJECT_NAME":"STARLINK-31038","OBJECT_ID":"2023-200S","EPOCH":"2026-03-09T22:00:01.999584","MEAN_MOTION":15.26845511,"ECCENTRICITY":0.00013714,"INCLINATION":42.9996,"RA_OF_ASC_NODE":167.3794,"ARG_OF_PERICENTER":283.6753,"MEAN_ANOMALY":224.0704,"EPHEMERIS_TYPE":0,"CLASSIFICATION_TYPE":"U","NORAD_CAT_ID":58605,"ELEMENT_SET_NO":999,"REV_AT_EPOCH":578,"BSTAR":-0.0004130566,"MEAN_MOTION_DOT":-0.00011358,"MEAN_MOTION_DDOT":0},{"OBJECT_NAME":"HERMES-4","OBJECT_ID":"2025-052BP","EPOCH":"2026-03-09T22:05:58.629408","MEAN_MOTION":15.26796135,"ECCENTRICITY":0.00026523,"INCLINATION":97.4,"RA_OF_ASC_NODE":323.461,"ARG_OF_PERICENTER":154.9526,"MEAN_ANOMALY":205.1842,"EPHEMERIS_TYPE":0,"CLASSIFICATION_TYPE":"U","NORAD_CAT_ID":63833,"ELEMENT_SET_NO":999,"REV_AT_EPOCH":5478,"BSTAR":0.00081237216,"MEAN_MOTION_DOT":0.00021364,"MEAN_MOTION_DDOT":0}]
